{
  "type": "FeatureCollection",
  "features": [
    {
      "type": "Feature",
      "properties": {
        "norad_id": 37292,
        "name": "COSMOS 2251 DEB",
        "group": "cosmos-2251-debris",
        "lat": 45.51409486152876,
        "lon": 54.5547064892209,
        "alt_km": 727.0696711693599,
        "timestamp": "2025-12-19T16:54:44.660965+00:00",
        "meta_object_name": "COSMOS 2251 DEB",
        "meta_object_id": "1993-036BJG",
        "meta_epoch": "2025-12-02T14:04:30.366912",
        "meta_mean_motion": 14.03226454,
        "meta_eccentricity": 0.02102512,
        "meta_inclination": 74.129,
        "meta_ra_of_asc_node": 67.3453,
        "meta_arg_of_pericenter": 73.1105,
        "meta_mean_anomaly": 289.2966,
        "meta_ephemeris_type": 0,
        "meta_classification_type": "U",
        "meta_norad_cat_id": 37292,
        "meta_element_set_no": 999,
        "meta_rev_at_epoch": 59706,
        "meta_bstar": 0.0022453288,
        "meta_mean_motion_dot": 4.236e-05,
        "meta_mean_motion_ddot": 0,
        "tle_line1": "1 37292U 93036BJG 25336.58646258  .00004236  00000+0  22453-2 0  9999",
        "tle_line2": "2 37292  74.1290  67.3453 0210251  73.1105 289.2966 14.03226454597064"
      },
      "geometry": {
        "type": "Point",
        "coordinates": [
          54.5547064892209,
          45.51409486152876
        ]
      }
    },
    {
      "type": "Feature",
      "properties": {
        "norad_id": 37295,
        "name": "COSMOS 2251 DEB",
        "group": "cosmos-2251-debris",
        "lat": 67.01421991415563,
        "lon": -49.259772736100516,
        "alt_km": 638.9999608650223,
        "timestamp": "2025-12-19T16:54:44.660975+00:00",
        "meta_object_name": "COSMOS 2251 DEB",
        "meta_object_id": "1993-036BJK",
        "meta_epoch": "2025-12-17T18:42:01.411200",
        "meta_mean_motion": 14.6526833,
        "meta_eccentricity": 0.00439101,
        "meta_inclination": 74.007,
        "meta_ra_of_asc_node": 271.9083,
        "meta_arg_of_pericenter": 89.546,
        "meta_mean_anomaly": 271.074,
        "meta_ephemeris_type": 0,
        "meta_classification_type": "U",
        "meta_norad_cat_id": 37295,
        "meta_element_set_no": 999,
        "meta_rev_at_epoch": 82378,
        "meta_bstar": 0.00042758939,
        "meta_mean_motion_dot": 2.307e-05,
        "meta_mean_motion_ddot": 0,
        "tle_line1": "1 37295U 93036BJK 25351.77918300  .00002307  00000+0  42759-3 0  9999",
        "tle_line2": "2 37295  74.0070 271.9083 0043910  89.5460 271.0740 14.65268330823782"
      },
      "geometry": {
        "type": "Point",
        "coordinates": [
          -49.259772736100516,
          67.01421991415563
        ]
      }
    },
    {
      "type": "Feature",
      "properties": {
        "norad_id": 37305,
        "name": "COSMOS 2251 DEB",
        "group": "cosmos-2251-debris",
        "lat": -25.066402931746733,
        "lon": 105.3796493878527,
        "alt_km": 745.5586510882104,
        "timestamp": "2025-12-19T16:54:44.660986+00:00",
        "meta_object_name": "COSMOS 2251 DEB",
        "meta_object_id": "1993-036BJV",
        "meta_epoch": "2025-12-13T12:50:04.816608",
        "meta_mean_motion": 14.36140847,
        "meta_eccentricity": 0.00500253,
        "meta_inclination": 73.8697,
        "meta_ra_of_asc_node": 289.0409,
        "meta_arg_of_pericenter": 249.3262,
        "meta_mean_anomaly": 110.2523,
        "meta_ephemeris_type": 0,
        "meta_classification_type": "U",
        "meta_norad_cat_id": 37305,
        "meta_element_set_no": 999,
        "meta_rev_at_epoch": 66878,
        "meta_bstar": 0.00092453159,
        "meta_mean_motion_dot": 2.706e-05,
        "meta_mean_motion_ddot": 0,
        "tle_line1": "1 37305U 93036BJV 25347.53477797  .00002706  00000+0  92453-3 0  9999",
        "tle_line2": "2 37305  73.8697 289.0409 0050025 249.3262 110.2523 14.36140847668789"
      },
      "geometry": {
        "type": "Point",
        "coordinates": [
          105.3796493878527,
          -25.066402931746733
        ]
      }
    },
    {
      "type": "Feature",
      "properties": {
        "norad_id": 37312,
        "name": "COSMOS 2251 DEB",
        "group": "cosmos-2251-debris",
        "lat": 39.34418794299115,
        "lon": -2.394709503788159,
        "alt_km": 746.710916560557,
        "timestamp": "2025-12-19T16:54:44.660997+00:00",
        "meta_object_name": "COSMOS 2251 DEB",
        "meta_object_id": "1993-036BKC",
        "meta_epoch": "2025-12-15T07:40:32.314080",
        "meta_mean_motion": 14.46134941,
        "meta_eccentricity": 0.00183905,
        "meta_inclination": 74.0308,
        "meta_ra_of_asc_node": 199.364,
        "meta_arg_of_pericenter": 302.4306,
        "meta_mean_anomaly": 57.5073,
        "meta_ephemeris_type": 0,
        "meta_classification_type": "U",
        "meta_norad_cat_id": 37312,
        "meta_element_set_no": 999,
        "meta_rev_at_epoch": 86201,
        "meta_bstar": 0.00037323494,
        "meta_mean_motion_dot": 1.309e-05,
        "meta_mean_motion_ddot": 0,
        "tle_line1": "1 37312U 93036BKC 25349.31981845  .00001309  00000+0  37323-3 0  9992",
        "tle_line2": "2 37312  74.0308 199.3640 0018390 302.4306  57.5073 14.46134941862012"
      },
      "geometry": {
        "type": "Point",
        "coordinates": [
          -2.394709503788159,
          39.34418794299115
        ]
      }
    },
    {
      "type": "Feature",
      "properties": {
        "norad_id": 37316,
        "name": "COSMOS 2251 DEB",
        "group": "cosmos-2251-debris",
        "lat": 62.52992173719737,
        "lon": 153.56913680396005,
        "alt_km": 561.0151773865764,
        "timestamp": "2025-12-19T16:54:44.661007+00:00",
        "meta_object_name": "COSMOS 2251 DEB",
        "meta_object_id": "1993-036BKG",
        "meta_epoch": "2025-12-18T11:29:58.442496",
        "meta_mean_motion": 14.94726133,
        "meta_eccentricity": 0.00293495,
        "meta_inclination": 74.0196,
        "meta_ra_of_asc_node": 9.4903,
        "meta_arg_of_pericenter": 75.1338,
        "meta_mean_anomaly": 285.3093,
        "meta_ephemeris_type": 0,
        "meta_classification_type": "U",
        "meta_norad_cat_id": 37316,
        "meta_element_set_no": 999,
        "meta_rev_at_epoch": 86229,
        "meta_bstar": 0.0018370808,
        "meta_mean_motion_dot": 0.00020143,
        "meta_mean_motion_ddot": 0,
        "tle_line1": "1 37316U 93036BKG 25352.47914864  .00020143  00000+0  18371-2 0  9992",
        "tle_line2": "2 37316  74.0196   9.4903 0029349  75.1338 285.3093 14.94726133862295"
      },
      "geometry": {
        "type": "Point",
        "coordinates": [
          153.56913680396005,
          62.52992173719737
        ]
      }
    },
    {
      "type": "Feature",
      "properties": {
        "norad_id": 37320,
        "name": "COSMOS 2251 DEB",
        "group": "cosmos-2251-debris",
        "lat": -29.003191074297064,
        "lon": 33.603750009103656,
        "alt_km": 632.5080734313788,
        "timestamp": "2025-12-19T16:54:44.661017+00:00",
        "meta_object_name": "COSMOS 2251 DEB",
        "meta_object_id": "1993-036BKL",
        "meta_epoch": "2025-12-18T07:29:21.246144",
        "meta_mean_motion": 14.788451,
        "meta_eccentricity": 0.00469492,
        "meta_inclination": 74.045,
        "meta_ra_of_asc_node": 207.2135,
        "meta_arg_of_pericenter": 293.0876,
        "meta_mean_anomaly": 66.5354,
        "meta_ephemeris_type": 0,
        "meta_classification_type": "U",
        "meta_norad_cat_id": 37320,
        "meta_element_set_no": 999,
        "meta_rev_at_epoch": 66229,
        "meta_bstar": 0.00065191726,
        "meta_mean_motion_dot": 4.856e-05,
        "meta_mean_motion_ddot": 0,
        "tle_line1": "1 37320U 93036BKL 25352.31205146  .00004856  00000+0  65192-3 0  9993",
        "tle_line2": "2 37320  74.0450 207.2135 0046949 293.0876  66.5354 14.78845100662296"
      },
      "geometry": {
        "type": "Point",
        "coordinates": [
          33.603750009103656,
          -29.003191074297064
        ]
      }
    },
    {
      "type": "Feature",
      "properties": {
        "norad_id": 37326,
        "name": "COSMOS 2251 DEB",
        "group": "cosmos-2251-debris",
        "lat": -14.896637787192105,
        "lon": -43.011050699513994,
        "alt_km": 701.3285335825849,
        "timestamp": "2025-12-19T16:54:44.661028+00:00",
        "meta_object_name": "COSMOS 2251 DEB",
        "meta_object_id": "1993-036BKS",
        "meta_epoch": "2025-12-18T14:41:59.918784",
        "meta_mean_motion": 14.6160351,
        "meta_eccentricity": 0.00547059,
        "meta_inclination": 74.0257,
        "meta_ra_of_asc_node": 323.4491,
        "meta_arg_of_pericenter": 90.7075,
        "meta_mean_anomaly": 270.0361,
        "meta_ephemeris_type": 0,
        "meta_classification_type": "U",
        "meta_norad_cat_id": 37326,
        "meta_element_set_no": 999,
        "meta_rev_at_epoch": 85569,
        "meta_bstar": 0.00040097011,
        "meta_mean_motion_dot": 2.005e-05,
        "meta_mean_motion_ddot": 0,
        "tle_line1": "1 37326U 93036BKS 25352.61249906  .00002005  00000+0  40097-3 0  9995",
        "tle_line2": "2 37326  74.0257 323.4491 0054705  90.7075 270.0361 14.61603510855692"
      },
      "geometry": {
        "type": "Point",
        "coordinates": [
          -43.011050699513994,
          -14.896637787192105
        ]
      }
    }
  ]
}